#dV2023  1  5 22  0  0.00000000    1682       CTS   FIT  GFZ
## 2243 424800.00000000    30.00000000 59949 0.9166666666667
+    1   L65  0  0  0  0  0  0  0  0  0  0  0  0  0  0  0  0
+          0  0  0  0  0  0  0  0  0  0  0  0  0  0  0  0  0
+          0  0  0  0  0  0  0  0  0  0  0  0  0  0  0  0  0
+          0  0  0  0  0  0  0  0  0  0  0  0  0  0  0  0  0
+          0  0  0  0  0  0  0  0  0  0  0  0  0  0  0  0  0
++         0  0  0  0  0  0  0  0  0  0  0  0  0  0  0  0  0
++         0  0  0  0  0  0  0  0  0  0  0  0  0  0  0  0  0
++         0  0  0  0  0  0  0  0  0  0  0  0  0  0  0  0  0
++         0  0  0  0  0  0  0  0  0  0  0  0  0  0  0  0  0
++         0  0  0  0  0  0  0  0  0  0  0  0  0  0  0  0  0
%c L  cc GPS ccc cccc cccc cccc cccc ccccc ccccc ccccc ccccc
%c cc cc ccc ccc cccc cccc cccc cccc ccccc ccccc ccccc ccccc
%f  0.0000000  0.000000000  0.00000000000  0.000000000000000
%f  0.0000000  0.000000000  0.00000000000  0.000000000000000
%i    0    0    0    0      0      0      0      0         0
%i    0    0    0    0      0      0      0      0         0
/* CCCCCCCCCCCCCCCCCCCCCCCCCCCCCCCCCCCCCCCCCCCCCCCCCCCCCCCCCCCCCCCCCCCCCCCCCCCCC
/* C                             GFZ RSO-ORBIT                                 C
/* C DOI: https://doi.org/10.5880/GFZ_ORBIT/RSO/L65_G_v02                      C
/* C                                                                           C
/* C DORIS        RMS: not applicable                                          C
/* C GNSS-E Code  RMS: not applicable                                          C
/* C GNSS-E Phase RMS: not applicable                                          C
/* C GNSS-G Code  RMS:  48.973 [cm]   Obs.acc.:     14271 Obs.eli.:      1363  C
/* C GNSS-G Phase RMS:   4.239 [mm]   Obs.acc.:     14271 Obs.eli.:      1363  C
/* C SLR          RMS:   0.874 [cm]   Obs.acc.:        31 Obs.eli.:         0  C
/* C                                                                           C
/* CCCCCCCCCCCCCCCCCCCCCCCCCCCCCCCCCCCCCCCCCCCCCCCCCCCCCCCCCCCCCCCCCCCCCCCCCCCCC
*  2023  1  6  5 13 30.00000000
PL65   4953.902810    544.354806   4734.335755  21490.117646
VL65  52341.978511   3957.048212 -55110.121580 999999.999999
*  2023  1  6  5 14  0.00000000
PL65   5108.206480    555.585507   4566.419153  21490.585114
VL65  50517.374428   3530.727047 -56824.002523 999999.999999
*  2023  1  6  5 14 30.00000000
PL65   5256.949506    565.543375   4393.454350  21491.052179
VL65  48635.221650   3108.612711 -58475.276277 999999.999999
*  2023  1  6  5 15  0.00000000
PL65   5399.962332    574.242100   4215.631948  21491.519162
VL65  46697.593401   2691.414644 -60062.100100 999999.999999
*  2023  1  6  5 15 30.00000000
PL65   5537.081728    581.697475   4033.147976  21491.985925
VL65  44706.629659   2279.828132 -61582.699710 999999.999999
*  2023  1  6  5 16  0.00000000
PL65   5668.150979    587.927361   3846.203679  21492.452349
VL65  42664.536670   1874.533829 -63035.372655 999999.999999
*  2023  1  6  5 16 30.00000000
PL65   5793.020086    592.951636   3655.005294  21492.918975
VL65  40573.582862   1476.197086 -64418.493836 999999.999999
*  2023  1  6  5 17  0.00000000
PL65   5911.545938    596.792150   3459.763816  21493.385676
VL65  38436.092473   1085.466047 -65730.516913 999999.999999
*  2023  1  6  5 17 30.00000000
PL65   6023.592480    599.472668   3260.694762  21493.852161
VL65  36254.443001    702.969414 -66969.972770 999999.999999
*  2023  1  6  5 18  0.00000000
PL65   6129.030865    601.018810   3058.017941  21494.318547
VL65  34031.064199    329.315304 -68135.469495 999999.999999
*  2023  1  6  5 18 30.00000000
PL65   6227.739615    601.457990   2851.957222  21494.784947
VL65  31768.437843    -34.909311 -69225.692514 999999.999999
*  2023  1  6  5 19  0.00000000
PL65   6319.604778    600.819350   2642.740297  21495.251282
VL65  29469.098740   -389.138565 -70239.407935 999999.999999
*  2023  1  6  5 19 30.00000000
PL65   6404.520078    599.133699   2430.598431  21495.717771
VL65  27135.631383   -732.827377 -71175.469450 999999.999999
*  2023  1  6  5 20  0.00000000
PL65   6482.387063    596.433450   2215.766192  21496.184265
VL65  24770.661988  -1065.452232 -72032.821526 999999.999999
*  2023  1  6  5 20 30.00000000
PL65   6553.115210    592.752551   1998.481180  21496.650943
VL65  22376.853422  -1386.513012 -72810.498226 999999.999999
*  2023  1  6  5 21  0.00000000
PL65   6616.622040    588.126413   1778.983758  21497.117839
VL65  19956.902859  -1695.534424 -73507.623023 999999.999999
*  2023  1  6  5 21 30.00000000
PL65   6672.833213    582.591835   1557.516784  21497.584696
VL65  17513.538858  -1992.066429 -74123.409198 999999.999999
*  2023  1  6  5 22  0.00000000
PL65   6721.682616    576.186929   1334.325341  21498.051499
VL65  15049.518825  -2275.684598 -74657.159758 999999.999999
*  2023  1  6  5 22 30.00000000
PL65   6763.112453    568.951040   1109.656471  21498.518105
VL65  12567.627602  -2545.990832 -75108.268028 999999.999999
*  2023  1  6  5 23  0.00000000
PL65   6797.073321    560.924668    883.758893  21498.984724
VL65  10070.676202  -2802.613566 -75476.219983 999999.999999
*  2023  1  6  5 23 30.00000000
PL65   6823.524283    552.149388    656.882727  21499.451384
VL65   7561.497867  -3045.207993 -75760.598534 999999.999999
*  2023  1  6  5 24  0.00000000
PL65   6842.432929    542.667766    429.279197  21499.917963
VL65   5042.940380  -3273.457666 -75961.085187 999999.999999
*  2023  1  6  5 24 30.00000000
PL65   6853.775403    532.523274    201.200334  21500.384712
VL65   2517.860398  -3487.075598 -76077.457065 999999.999999
*  2023  1  6  5 25  0.00000000
PL65   6857.536433    521.760203    -27.101298  21500.851396
VL65    -10.877743  -3685.803550 -76109.584372 999999.999999
*  2023  1  6  5 25 30.00000000
PL65   6853.709350    510.423574   -255.372889  21501.318014
VL65  -2540.402540  -3869.411505 -76057.431552 999999.999999
*  2023  1  6  5 26  0.00000000
PL65   6842.296106    498.559057   -483.361666  21501.784625
VL65  -5067.839093  -4037.697897 -75921.060432 999999.999999
*  2023  1  6  5 26 30.00000000
PL65   6823.307275    486.212882   -710.815189  21502.251286
VL65  -7590.315869  -4190.490095 -75700.630503 999999.999999
*  2023  1  6  5 27  0.00000000
PL65   6796.762034    473.431754   -937.481641  21502.717902
VL65 -10104.969130  -4327.645299 -75396.396277 999999.999999
*  2023  1  6  5 27 30.00000000
PL65   6762.688138    460.262760  -1163.110108  21503.184434
VL65 -12608.944840  -4449.051302 -75008.705822 999999.999999
*  2023  1  6  5 28  0.00000000
PL65   6721.121885    446.753278  -1387.450859  21503.651198
VL65 -15099.400974  -4554.626720 -74538.000786 999999.999999
*  2023  1  6  5 28 30.00000000
PL65   6672.108079    432.950882  -1610.255630  21504.117945
VL65 -17573.510703  -4644.320695 -73984.816568 999999.999999
*  2023  1  6  5 29  0.00000000
PL65   6615.699976    418.903257  -1831.277905  21504.584289
VL65 -20028.466285  -4718.112281 -73349.782170 999999.999999
*  2023  1  6  5 29 30.00000000
PL65   6551.959221    404.658104  -2050.273192  21505.050900
VL65 -22461.483109  -4776.010007 -72633.619247 999999.999999
*  2023  1  6  5 30  0.00000000
PL65   6480.955775    390.263054  -2266.999302  21505.517473
VL65 -24869.803222  -4818.051870 -71837.140618 999999.999999
*  2023  1  6  5 30 30.00000000
PL65   6402.767828    375.765582  -2481.216619  21505.984008
VL65 -27250.698282  -4844.305611 -70961.248817 999999.999999
*  2023  1  6  5 31  0.00000000
PL65   6317.481708    361.212912  -2692.688370  21506.450330
VL65 -29601.472192  -4854.868785 -70006.935107 999999.999999
*  2023  1  6  5 31 30.00000000
PL65   6225.191778    346.651933  -2901.180884  21506.916692
VL65 -31919.464231  -4849.868386 -68975.278901 999999.999999
*  2023  1  6  5 32  0.00000000
PL65   6126.000327    332.129110  -3106.463864  21507.383353
VL65 -34202.052920  -4829.460268 -67867.446668 999999.999999
*  2023  1  6  5 32 30.00000000
PL65   6020.017444    317.690396  -3308.310637  21507.849809
VL65 -36446.659773  -4793.828521 -66684.690102 999999.999999
*  2023  1  6  5 33  0.00000000
PL65   5907.360884    303.381152  -3506.498412  21508.316275
VL65 -38650.752456  -4743.184883 -65428.344008 999999.999999
*  2023  1  6  5 33 30.00000000
PL65   5788.155929    289.246061  -3700.808525  21508.782761
VL65 -40811.847624  -4677.768468 -64099.824422 999999.999999
*  2023  1  6  5 34  0.00000000
PL65   5662.535229    275.329048  -3891.026678  21509.249341
VL65 -42927.514048  -4597.845536 -62700.626672 999999.999999
*  2023  1  6  5 34 30.00000000
PL65   5530.638651    261.673202  -4076.943177  21509.715962
VL65 -44995.375597  -4503.709025 -61232.322749 999999.999999
*  2023  1  6  5 35  0.00000000
PL65   5392.613101    248.320690  -4258.353152  21510.182603
VL65 -47013.113314  -4395.678064 -59696.558608 999999.999999
*  2023  1  6  5 35 30.00000000
PL65   5248.612357    235.312684  -4435.056784  21510.649276
VL65 -48978.467135  -4274.097235 -58095.052156 999999.999999
*  2023  1  6  5 36  0.00000000
PL65   5098.796884    222.689288  -4606.859509  21511.116453
VL65 -50889.237827  -4139.335572 -56429.591522 999999.999999
*  2023  1  6  5 36 30.00000000
PL65   4943.333652    210.489460  -4773.572233  21511.583126
VL65 -52743.289080  -3991.785786 -54702.033609 999999.999999
*  2023  1  6  5 37  0.00000000
PL65   4782.395942    198.750946  -4935.011535  21512.049976
VL65 -54538.550503  -3831.863742 -52914.302481 999999.999999
*  2023  1  6  5 37 30.00000000
PL65   4616.163142    187.510212  -5090.999861  21512.516475
VL65 -56273.020570  -3660.007726 -51068.386369 999999.999999
*  2023  1  6  5 38  0.00000000
PL65   4444.820543    176.802375  -5241.365715  21512.982960
VL65 -57944.768064  -3476.677601 -49166.334500 999999.999999
*  2023  1  6  5 38 30.00000000
PL65   4268.559119    166.661141  -5385.943839  21513.449443
VL65 -59551.933060  -3282.353931 -47210.255072 999999.999999
EOF
